LANDSAT 9               
1 49260U 21088A   24044.12419450  .00000817  00000+0  19121-3 0  9992
2 49260  98.2019 115.7862 0000988 108.4017 251.7289 14.57123990126473
